GLOBALSTAR M069         
1 31573U 07020C   26204.23857084 -.00000062  00000+0  28084-3 0  9992
2 31573  52.0020 150.0854 0001471 228.3389 277.9110 12.23472604883211
GLOBALSTAR M072         
1 31574U 07020D   26204.22863286 -.00000084  00000+0  35430-5 0  9992
2 31574  51.9954   4.2932 0001636  49.9640 121.0387 11.91658762879274
GLOBALSTAR M066         
1 32265U 07048C   26203.32694402 -.00000025  00000+0  59145-3 0  9994
2 32265  51.9610 317.0380 0005480 116.3209 278.9500 12.30390412864557
GLOBALSTAR M079         
1 37188U 10054A   26203.76436852 -.00000099  00000+0  26196-4 0  9997
2 37188  52.0059   0.3677 0001113  89.9803 309.6942 12.62266424727044
GLOBALSTAR M074         
1 37189U 10054B   26203.70807359 -.00000103  00000+0  61618-5 0  9991
2 37189  52.0038 359.7991 0000833 104.9572 278.6412 12.62262042727646
GLOBALSTAR M076         
1 37190U 10054C   26203.84446869 -.00000081  00000+0  12609-3 0  9992
2 37190  52.0053 359.5904 0001080 102.3636  61.2519 12.62262687727374
GLOBALSTAR M077         
1 37191U 10054D   26204.10514396 -.00000089  00000+0 -19578-3 0  9995
2 37191  51.9963  88.1305 0002148 239.9139 289.0346 11.67547147725337
GLOBALSTAR M075         
1 37192U 10054E   26204.25537568 -.00000104  00000+0 -26834-5 0  9991
2 37192  51.9957  40.3727 0000798  76.1708  96.2621 12.62267910726496
GLOBALSTAR M073         
1 37193U 10054F   26204.30303903 -.00000099  00000+0  26151-4 0  9995
2 37193  52.0079 314.3577 0000959 109.0082 278.3995 12.62266988728494
GLOBALSTAR M083         
1 37739U 11033A   26204.15743331 -.00000091  00000+0  73344-4 0  9993
2 37739  51.9852 262.9816 0000690 113.6176 272.9985 12.62258606697490
GLOBALSTAR M088         
1 37740U 11033B   26204.31993882 -.00000088  00000+0  86538-4 0  9996
2 37740  52.0195 168.9984 0000198  33.4122 130.8600 12.62269562693055
GLOBALSTAR M091         
1 37741U 11033C   26204.16909560 -.00000101  00000+0  15489-4 0  9993
2 37741  51.9992 132.3705 0000608  37.5082 101.4618 12.62264327693823
GLOBALSTAR M085         
1 37742U 11033D   26204.16302024 -.00000103  00000+0  71065-5 0  9991
2 37742  52.0129  83.7129 0000920  55.3823 115.9644 12.62264550694339
GLOBALSTAR M081         
1 37743U 11033E   26204.10873904 -.00000101  00000+0  15744-4 0  9995
2 37743  51.9961  86.2730 0000787  65.9975  98.4661 12.62265450694473
GLOBALSTAR M089         
1 37744U 11033F   26204.07110159 -.00000099  00000+0  29140-4 0  9999
2 37744  51.9941  40.5389 0000725  99.3141  75.2064 12.62267686695310
GLOBALSTAR M084         
1 38040U 11080A   26204.20611093 -.00000091  00000+0  72402-4 0  9990
2 38040  52.0003 267.6306 0000652 144.7634 223.2491 12.62263744673319
GLOBALSTAR M080         
1 38041U 11080B   26204.17979440 -.00000091  00000+0  71135-4 0  9992
2 38041  52.0053 269.4420 0000290  63.0607 314.9350 12.62257668673436
GLOBALSTAR M082         
1 38042U 11080C   26204.11573396 -.00000085  00000+0  10298-3 0  9992
2 38042  52.0050 225.1399 0000226  45.7169 331.1691 12.62264401674137
GLOBALSTAR M092         
1 38043U 11080D   26204.33069212 -.00000089  00000+0  80039-4 0  9999
2 38043  52.0104 314.8846 0000695 113.6280 279.9921 12.62268016672612
GLOBALSTAR M090         
1 38044U 11080E   26204.06705530 -.00000086  00000+0  10020-3 0  9999
2 38044  52.0096 219.2551 0000388  78.1400 316.3565 12.62269661674240
GLOBALSTAR M086         
1 38045U 11080F   26204.08820302 -.00000091  00000+0  72556-4 0  9996
2 38045  51.9868 219.0606 0001381 122.7660 272.1379 12.62287851674190
GLOBALSTAR M097         
1 39072U 13005A   26204.19160788 -.00000107  00000+0 -19922-4 0  9990
2 39072  52.0037 133.7342 0000601  49.3326 310.7593 12.62271310621458
GLOBALSTAR M093         
1 39073U 13005B   26204.16487538 -.00000099  00000+0  26942-4 0  9992
2 39073  52.0101 127.1770 0000824  55.3218 304.7727 12.62266458621401
GLOBALSTAR M094         
1 39074U 13005C   26204.00637004 -.00000100  00000+0  20883-4 0  9992
2 39074  51.9969  41.7401 0001049  76.0836 284.0147 12.62264294622997
GLOBALSTAR M096         
1 39075U 13005D   26203.94070740 -.00000100  00000+0  22972-4 0  9994
2 39075  52.0077  90.7705 0000868  55.8955 304.1994 12.62265940621909
GLOBALSTAR M078         
1 39076U 13005E   26204.23059933 -.00000091  00000+0  72058-4 0  9998
2 39076  51.9852 173.8478 0001029   0.4878 359.5989 12.62260128620561
GLOBALSTAR M095         
1 39077U 13005F   26204.17807706 -.00000095  00000+0  48283-4 0  9998
2 39077  52.0060 171.6621 0000638  25.4631 334.6267 12.62264106620417
GLOBALSTAR M087         
1 52888U 22064A   26204.27033730 -.00000092  00000+0  66811-4 0  9991
2 52888  52.0013 312.6008 0000849  95.2352 264.8612 12.62269513195697
